{"type": "FeatureCollection", "features": [{"type": "Feature", "properties": {"name": "Lomas - Microcentro"}, "geometry": {"type": "Polygon", "coordinates": [[[-58.4079889, -34.757286], [-58.4083895, -34.7597821], [-58.4111281, -34.7723193], [-58.4100902, -34.7739634], [-58.3983003, -34.7675678], [-58.3983579, -34.7664329], [-58.4037369, -34.7663908], [-58.4029076, -34.7628165], [-58.402451, -34.7606036], [-58.4020234, -34.758573], [-58.4010523, -34.7545205], [-58.396809, -34.7546637], [-58.3965143, -34.7534336], [-58.3962734, -34.7522035], [-58.3960163, -34.7510834], [-58.3958527, -34.7503811], [-58.397322, -34.7501759], [-58.3988311, -34.7499389], [-58.4018215, -34.7495509], [-58.4061347, -34.748758], [-58.4071625, -34.7536251], [-58.4079889, -34.757286]]]}}, {"type": "Feature", "properties": {"name": "Lomas - Frias/Garibaldi"}, "geometry": {"type": "Polygon", "coordinates": [[[-58.4111577, -34.7724828], [-58.4111471, -34.7718351], [-58.4107124, -34.7702356], [-58.4102994, -34.7679882], [-58.4200849, -34.7664789], [-58.4280033, -34.7652777], [-58.4296271, -34.7683115], [-58.4297485, -34.7688958], [-58.4296362, -34.7692653], [-58.429486, -34.7695738], [-58.4289281, -34.7705256], [-58.4284293, -34.7712262], [-58.4281557, -34.7719709], [-58.4279464, -34.7732136], [-58.4278257, -34.7736983], [-58.4277909, -34.7742623], [-58.4276836, -34.774791], [-58.427469, -34.7755665], [-58.426954, -34.7762363], [-58.4258812, -34.7770294], [-58.4254305, -34.7773202], [-58.4251408, -34.7775493], [-58.4249156, -34.7778225], [-58.4247654, -34.7783865], [-58.4246366, -34.7796995], [-58.4245937, -34.7806777], [-58.4245937, -34.7812417], [-58.4245615, -34.7816249], [-58.4237783, -34.7813396], [-58.415324, -34.7768355], [-58.4101117, -34.7739634], [-58.4111577, -34.7724828]]]}}, {"type": "Feature", "properties": {"name": "Lomas - P Libertad"}, "geometry": {"type": "Polygon", "coordinates": [[[-58.4080638, -34.7582264], [-58.4332048, -34.7549697], [-58.4308035, -34.7584644], [-58.4298969, -34.7605932], [-58.4280033, -34.7652777], [-58.4277136, -34.7653041], [-58.4274615, -34.7653834], [-58.4102994, -34.7679882], [-58.4080638, -34.7582264]]]}}, {"type": "Feature", "properties": {"name": "Lomas - Las Heras"}, "geometry": {"type": "Polygon", "coordinates": [[[-58.4197604, -34.7517552], [-58.4192257, -34.7468853], [-58.4298486, -34.7455415], [-58.430265, -34.7475013], [-58.4309967, -34.748486], [-58.4334482, -34.7499581], [-58.4356369, -34.7509454], [-58.4360151, -34.7514853], [-58.4358085, -34.752109], [-58.4342536, -34.7544188], [-58.4339432, -34.7545777], [-58.4332048, -34.7549697], [-58.4318871, -34.7551678], [-58.4295429, -34.7554764], [-58.4278692, -34.755635], [-58.4242643, -34.7562344], [-58.4080638, -34.7582264], [-58.407184, -34.7536251], [-58.4197604, -34.7517552]]]}}, {"type": "Feature", "properties": {"name": "Banfield Este"}, "geometry": {"type": "Polygon", "coordinates": [[[-58.3851741, -34.7487258], [-58.3751862, -34.7431449], [-58.3804975, -34.738595], [-58.3945838, -34.7356566], [-58.3959435, -34.7483212], [-58.3961287, -34.7502208], [-58.3915204, -34.7509573], [-58.3870484, -34.7516062], [-58.3841616, -34.7501064], [-58.3851741, -34.7487258]]]}}, {"type": "Feature", "properties": {"name": "Banfield Oeste"}, "geometry": {"type": "Polygon", "coordinates": [[[-58.4261759, -34.738403], [-58.4242018, -34.746364], [-58.4063499, -34.7489514], [-58.404349, -34.7399284], [-58.4041988, -34.7392848], [-58.4040485, -34.7387866], [-58.4037535, -34.7376846], [-58.4033459, -34.7357095], [-58.4030388, -34.7344922], [-58.4119504, -34.7331174], [-58.4135597, -34.7327427], [-58.4261759, -34.738403]]]}}, {"type": "Feature", "properties": {"name": "Temperley Este Cerrito"}, "geometry": {"type": "Polygon", "coordinates": [[[-58.3974497, -34.7671797], [-58.3968703, -34.7715312], [-58.3966128, -34.773329], [-58.3961837, -34.7748096], [-58.3955829, -34.7759023], [-58.3957116, -34.7773123], [-58.3957545, -34.7787223], [-58.3958404, -34.779392], [-58.3828572, -34.7725091], [-58.3714203, -34.7662164], [-58.3738664, -34.762215], [-58.3773855, -34.7564857], [-58.3974497, -34.7671797]]]}}, {"type": "Feature", "properties": {"name": "Temperley Este 30 de Septiembre"}, "geometry": {"type": "Polygon", "coordinates": [[[-58.3946816, -34.7904946], [-58.3923213, -34.7888734], [-58.3855407, -34.7853489], [-58.3836953, -34.784362], [-58.3812491, -34.7829873], [-58.3791034, -34.7818947], [-58.3773009, -34.7808372], [-58.3765714, -34.7804847], [-58.3644905, -34.7742188], [-58.3706491, -34.7660141], [-58.3958404, -34.779392], [-58.3958832, -34.7810487], [-58.3956687, -34.7822824], [-58.3956687, -34.7835513], [-58.3955399, -34.7843972], [-58.3952825, -34.7853489], [-58.3953683, -34.7862653], [-58.3953254, -34.7872169], [-58.394982, -34.789966], [-58.3946816, -34.7904946]]]}}, {"type": "Feature", "properties": {"name": "Temperley Oeste"}, "geometry": {"type": "Polygon", "coordinates": [[[-58.3974497, -34.7671797], [-58.4238319, -34.7813308], [-58.4209343, -34.7848732], [-58.4204193, -34.7849437], [-58.4196794, -34.7849877], [-58.4187035, -34.785067], [-58.4177586, -34.7850494], [-58.4152059, -34.7852609], [-58.4107857, -34.7855429], [-58.4078454, -34.7862475], [-58.406386, -34.7863358], [-58.4051852, -34.7867589], [-58.4032647, -34.7871111], [-58.400907, -34.7878138], [-58.3952396, -34.7889438], [-58.3974497, -34.7671797]]]}}, {"type": "Feature", "properties": {"name": "Turdera"}, "geometry": {"type": "MultiPolygon", "coordinates": [[[[-58.4077494, -34.786371], [-58.4078454, -34.7862475], [-58.4092403, -34.7858598], [-58.4107857, -34.7855429], [-58.4153987, -34.7852784], [-58.4176089, -34.785058], [-58.4208705, -34.7849964], [-58.4101842, -34.7987946], [-58.4082137, -34.801229], [-58.3982747, -34.7961512], [-58.3947556, -34.7941952], [-58.3952396, -34.7889438], [-58.3971922, -34.7887853], [-58.4077494, -34.786371]]], [[[-58.4078237, -34.7865118], [-58.408167, -34.7876924], [-58.4077494, -34.786371], [-58.4078237, -34.7865118]]]]}}, {"type": "Feature", "properties": {"name": "Lavallol Norte"}, "geometry": {"type": "Polygon", "coordinates": [[[-58.4237783, -34.7813396], [-58.425022, -34.7818274], [-58.4324411, -34.7846302], [-58.4281874, -34.7902526], [-58.431964, -34.7922967], [-58.4358267, -34.7941643], [-58.4338096, -34.7967016], [-58.4314066, -34.7999436], [-58.4309345, -34.8002607], [-58.4303552, -34.8006549], [-58.4205281, -34.7959685], [-58.4191386, -34.7983427], [-58.4193451, -34.7995651], [-58.4188101, -34.8008002], [-58.4171547, -34.8022646], [-58.4172373, -34.8042043], [-58.4090911, -34.8004141], [-58.4146704, -34.7926731], [-58.4237783, -34.7813396]]]}}, {"type": "Feature", "properties": {"name": "Lavallol Sur"}, "geometry": {"type": "Polygon", "coordinates": [[[-58.4205281, -34.7959685], [-58.4387671, -34.8048841], [-58.4388958, -34.8053774], [-58.4390245, -34.8057298], [-58.4383808, -34.806646], [-58.4337889, -34.812689], [-58.4223841, -34.8067782], [-58.4172373, -34.8042043], [-58.4171547, -34.8022646], [-58.4183627, -34.8010634], [-58.4191479, -34.8001411], [-58.4193451, -34.7995651], [-58.4191386, -34.7983427], [-58.4205281, -34.7959685]]]}}, {"type": "Feature", "properties": {"name": "Lomas Este"}, "geometry": {"type": "Polygon", "coordinates": [[[-58.3870484, -34.7516062], [-58.3960698, -34.7502517], [-58.3961287, -34.7502208], [-58.3965397, -34.7539824], [-58.3969603, -34.7573951], [-58.3974339, -34.7617861], [-58.3977253, -34.7646478], [-58.3974497, -34.7671797], [-58.3788285, -34.7572188], [-58.3813606, -34.7538251], [-58.3841616, -34.7501064], [-58.3870484, -34.7516062]]]}}, {"type": "Feature", "properties": {"name": "Banfied 3"}, "geometry": {"type": "Polygon", "coordinates": [[[-58.3666632, -34.7454978], [-58.372042, -34.7413131], [-58.3851741, -34.7487258], [-58.3788285, -34.7572188], [-58.3636878, -34.7495882], [-58.3666632, -34.7454978]]]}}]}